<?xml version="1.0" encoding="UTF-8"?>
<gpx version="1.1" creator="running-air"
     xmlns="http://www.topografix.com/GPX/1/1">
  <metadata><time>2026-10-09T12:46:51Z</time></metadata>
  <trk>
    <name>Najlepsza trasa biegowa Kraków</name>
    <trkseg>
    <trkpt lat="50.0654143" lon="19.9090311"></trkpt>
    <trkpt lat="50.0654864" lon="19.9086715"></trkpt>
    <trkpt lat="50.0655161" lon="19.9086607"></trkpt>
    <trkpt lat="50.0657567" lon="19.9087611"></trkpt>
    <trkpt lat="50.0661021" lon="19.9087437"></trkpt>
    <trkpt lat="50.0661717" lon="19.9087651"></trkpt>
    <trkpt lat="50.0663479" lon="19.9074701"></trkpt>
    <trkpt lat="50.066349" lon="19.9073139"></trkpt>
    <trkpt lat="50.0664526" lon="19.9073464"></trkpt>
    <trkpt lat="50.0666551" lon="19.9073942"></trkpt>
    <trkpt lat="50.0666646" lon="19.907331"></trkpt>
    <trkpt lat="50.0666729" lon="19.9072722"></trkpt>
    <trkpt lat="50.0668054" lon="19.9072363"></trkpt>
    <trkpt lat="50.0669491" lon="19.9072618"></trkpt>
    <trkpt lat="50.0669622" lon="19.9072661"></trkpt>
    <trkpt lat="50.0673714" lon="19.9069144"></trkpt>
    <trkpt lat="50.0673974" lon="19.9068829"></trkpt>
    <trkpt lat="50.0678526" lon="19.9066709"></trkpt>
    <trkpt lat="50.0679501" lon="19.9065735"></trkpt>
    <trkpt lat="50.068049" lon="19.9064744"></trkpt>
    <trkpt lat="50.0680813" lon="19.9064511"></trkpt>
    <trkpt lat="50.0682232" lon="19.9063322"></trkpt>
    <trkpt lat="50.0682531" lon="19.9061314"></trkpt>
    <trkpt lat="50.068366" lon="19.9059326"></trkpt>
    <trkpt lat="50.0683911" lon="19.9058836"></trkpt>
    <trkpt lat="50.0685945" lon="19.9055571"></trkpt>
    <trkpt lat="50.0686235" lon="19.9055663"></trkpt>
    <trkpt lat="50.0686228" lon="19.9056313"></trkpt>
    <trkpt lat="50.0691744" lon="19.9058307"></trkpt>
    <trkpt lat="50.0695159" lon="19.9059599"></trkpt>
    <trkpt lat="50.0695206" lon="19.9059336"></trkpt>
    <trkpt lat="50.0696827" lon="19.9059068"></trkpt>
    <trkpt lat="50.0697658" lon="19.9059393"></trkpt>
    <trkpt lat="50.0698551" lon="19.905965"></trkpt>
    <trkpt lat="50.0703936" lon="19.9061875"></trkpt>
    <trkpt lat="50.0708267" lon="19.9063699"></trkpt>
    <trkpt lat="50.0715675" lon="19.9066851"></trkpt>
    <trkpt lat="50.0718538" lon="19.9068053"></trkpt>
    <trkpt lat="50.0720232" lon="19.9068387"></trkpt>
    <trkpt lat="50.0720447" lon="19.9067752"></trkpt>
    <trkpt lat="50.0720952" lon="19.9067911"></trkpt>
    <trkpt lat="50.072144" lon="19.9068046"></trkpt>
    <trkpt lat="50.0721737" lon="19.9065849"></trkpt>
    <trkpt lat="50.0743695" lon="19.9066309"></trkpt>
    <trkpt lat="50.0746309" lon="19.9066261"></trkpt>
    <trkpt lat="50.0745993" lon="19.9064618"></trkpt>
    <trkpt lat="50.0745993" lon="19.9064321"></trkpt>
    <trkpt lat="50.0746901" lon="19.9063067"></trkpt>
    <trkpt lat="50.0748946" lon="19.9060012"></trkpt>
    <trkpt lat="50.0755723" lon="19.9062233"></trkpt>
    <trkpt lat="50.0756162" lon="19.9061162"></trkpt>
    <trkpt lat="50.0756721" lon="19.9059985"></trkpt>
    <trkpt lat="50.0757806" lon="19.9059606"></trkpt>
    <trkpt lat="50.0758814" lon="19.9056989"></trkpt>
    <trkpt lat="50.0760225" lon="19.9052766"></trkpt>
    <trkpt lat="50.0761961" lon="19.9048121"></trkpt>
    <trkpt lat="50.0763148" lon="19.9044928"></trkpt>
    <trkpt lat="50.0763794" lon="19.9043352"></trkpt>
    <trkpt lat="50.0764459" lon="19.9043832"></trkpt>
    <trkpt lat="50.0767259" lon="19.9036271"></trkpt>
    <trkpt lat="50.0769334" lon="19.9030654"></trkpt>
    <trkpt lat="50.0771605" lon="19.9024519"></trkpt>
    <trkpt lat="50.0776424" lon="19.9013118"></trkpt>
    <trkpt lat="50.0777244" lon="19.901141"></trkpt>
    <trkpt lat="50.0780242" lon="19.9003204"></trkpt>
    <trkpt lat="50.0782856" lon="19.8996193"></trkpt>
    <trkpt lat="50.0785617" lon="19.8988718"></trkpt>
    <trkpt lat="50.0788749" lon="19.8980289"></trkpt>
    <trkpt lat="50.079019" lon="19.8976443"></trkpt>
    <trkpt lat="50.0790987" lon="19.8974566"></trkpt>
    <trkpt lat="50.0791741" lon="19.8972662"></trkpt>
    <trkpt lat="50.0792577" lon="19.8970403"></trkpt>
    <trkpt lat="50.0795567" lon="19.8962356"></trkpt>
    <trkpt lat="50.0800207" lon="19.8949859"></trkpt>
    <trkpt lat="50.0801097" lon="19.8947449"></trkpt>
    <trkpt lat="50.0808963" lon="19.8923731"></trkpt>
    <trkpt lat="50.0810497" lon="19.8922109"></trkpt>
    <trkpt lat="50.0812835" lon="19.8921391"></trkpt>
    <trkpt lat="50.081759" lon="19.8914726"></trkpt>
    <trkpt lat="50.0819056" lon="19.8910385"></trkpt>
    <trkpt lat="50.0821024" lon="19.8909089"></trkpt>
    <trkpt lat="50.0824314" lon="19.8908811"></trkpt>
    <trkpt lat="50.0836282" lon="19.8909965"></trkpt>
    <trkpt lat="50.0846321" lon="19.890997"></trkpt>
    <trkpt lat="50.084737" lon="19.8908565"></trkpt>
    <trkpt lat="50.0847539" lon="19.8906409"></trkpt>
    <trkpt lat="50.0839565" lon="19.8859471"></trkpt>
    <trkpt lat="50.0839628" lon="19.8858972"></trkpt>
    <trkpt lat="50.0840467" lon="19.8858315"></trkpt>
    <trkpt lat="50.0840884" lon="19.885346"></trkpt>
    <trkpt lat="50.0841899" lon="19.884818"></trkpt>
    <trkpt lat="50.0842741" lon="19.8843936"></trkpt>
    <trkpt lat="50.0841609" lon="19.8847042"></trkpt>
    <trkpt lat="50.0841439" lon="19.8847938"></trkpt>
    <trkpt lat="50.0838777" lon="19.8851513"></trkpt>
    <trkpt lat="50.0838611" lon="19.8852468"></trkpt>
    <trkpt lat="50.0837052" lon="19.8851757"></trkpt>
    <trkpt lat="50.0838611" lon="19.8852468"></trkpt>
    <trkpt lat="50.0838777" lon="19.8851513"></trkpt>
    <trkpt lat="50.0841439" lon="19.8847938"></trkpt>
    <trkpt lat="50.0841609" lon="19.8847042"></trkpt>
    <trkpt lat="50.0842741" lon="19.8843936"></trkpt>
    <trkpt lat="50.0841899" lon="19.884818"></trkpt>
    <trkpt lat="50.0840884" lon="19.885346"></trkpt>
    <trkpt lat="50.0840467" lon="19.8858315"></trkpt>
    <trkpt lat="50.0839628" lon="19.8858972"></trkpt>
    <trkpt lat="50.0839565" lon="19.8859471"></trkpt>
    <trkpt lat="50.0847539" lon="19.8906409"></trkpt>
    <trkpt lat="50.084737" lon="19.8908565"></trkpt>
    <trkpt lat="50.0846321" lon="19.890997"></trkpt>
    <trkpt lat="50.0836282" lon="19.8909965"></trkpt>
    <trkpt lat="50.0824314" lon="19.8908811"></trkpt>
    <trkpt lat="50.0821024" lon="19.8909089"></trkpt>
    <trkpt lat="50.0819056" lon="19.8910385"></trkpt>
    <trkpt lat="50.081759" lon="19.8914726"></trkpt>
    <trkpt lat="50.0812835" lon="19.8921391"></trkpt>
    <trkpt lat="50.0810497" lon="19.8922109"></trkpt>
    <trkpt lat="50.0808963" lon="19.8923731"></trkpt>
    <trkpt lat="50.0801097" lon="19.8947449"></trkpt>
    <trkpt lat="50.0800207" lon="19.8949859"></trkpt>
    <trkpt lat="50.0795567" lon="19.8962356"></trkpt>
    <trkpt lat="50.0792577" lon="19.8970403"></trkpt>
    <trkpt lat="50.0791741" lon="19.8972662"></trkpt>
    <trkpt lat="50.0790987" lon="19.8974566"></trkpt>
    <trkpt lat="50.079019" lon="19.8976443"></trkpt>
    <trkpt lat="50.0788749" lon="19.8980289"></trkpt>
    <trkpt lat="50.0785617" lon="19.8988718"></trkpt>
    <trkpt lat="50.0782856" lon="19.8996193"></trkpt>
    <trkpt lat="50.0780242" lon="19.9003204"></trkpt>
    <trkpt lat="50.0777244" lon="19.901141"></trkpt>
    <trkpt lat="50.0776424" lon="19.9013118"></trkpt>
    <trkpt lat="50.0771605" lon="19.9024519"></trkpt>
    <trkpt lat="50.0769334" lon="19.9030654"></trkpt>
    <trkpt lat="50.0767259" lon="19.9036271"></trkpt>
    <trkpt lat="50.0764459" lon="19.9043832"></trkpt>
    <trkpt lat="50.0763794" lon="19.9043352"></trkpt>
    <trkpt lat="50.0763148" lon="19.9044928"></trkpt>
    <trkpt lat="50.0761961" lon="19.9048121"></trkpt>
    <trkpt lat="50.0760225" lon="19.9052766"></trkpt>
    <trkpt lat="50.0758814" lon="19.9056989"></trkpt>
    <trkpt lat="50.0757806" lon="19.9059606"></trkpt>
    <trkpt lat="50.0756721" lon="19.9059985"></trkpt>
    <trkpt lat="50.0756162" lon="19.9061162"></trkpt>
    <trkpt lat="50.0755723" lon="19.9062233"></trkpt>
    <trkpt lat="50.0748946" lon="19.9060012"></trkpt>
    <trkpt lat="50.0746901" lon="19.9063067"></trkpt>
    <trkpt lat="50.0745993" lon="19.9064321"></trkpt>
    <trkpt lat="50.0745993" lon="19.9064618"></trkpt>
    <trkpt lat="50.0746309" lon="19.9066261"></trkpt>
    <trkpt lat="50.0743695" lon="19.9066309"></trkpt>
    <trkpt lat="50.0721737" lon="19.9065849"></trkpt>
    <trkpt lat="50.072144" lon="19.9068046"></trkpt>
    <trkpt lat="50.0720952" lon="19.9067911"></trkpt>
    <trkpt lat="50.0720447" lon="19.9067752"></trkpt>
    <trkpt lat="50.0720232" lon="19.9068387"></trkpt>
    <trkpt lat="50.0718538" lon="19.9068053"></trkpt>
    <trkpt lat="50.0715675" lon="19.9066851"></trkpt>
    <trkpt lat="50.0708267" lon="19.9063699"></trkpt>
    <trkpt lat="50.0703936" lon="19.9061875"></trkpt>
    <trkpt lat="50.0698551" lon="19.905965"></trkpt>
    <trkpt lat="50.0697658" lon="19.9059393"></trkpt>
    <trkpt lat="50.0696827" lon="19.9059068"></trkpt>
    <trkpt lat="50.0695206" lon="19.9059336"></trkpt>
    <trkpt lat="50.0695159" lon="19.9059599"></trkpt>
    <trkpt lat="50.0691744" lon="19.9058307"></trkpt>
    <trkpt lat="50.0686228" lon="19.9056313"></trkpt>
    <trkpt lat="50.0686235" lon="19.9055663"></trkpt>
    <trkpt lat="50.0685945" lon="19.9055571"></trkpt>
    <trkpt lat="50.0683911" lon="19.9058836"></trkpt>
    <trkpt lat="50.068366" lon="19.9059326"></trkpt>
    <trkpt lat="50.0682531" lon="19.9061314"></trkpt>
    <trkpt lat="50.0682232" lon="19.9063322"></trkpt>
    <trkpt lat="50.0680813" lon="19.9064511"></trkpt>
    <trkpt lat="50.068049" lon="19.9064744"></trkpt>
    <trkpt lat="50.0679501" lon="19.9065735"></trkpt>
    <trkpt lat="50.0678526" lon="19.9066709"></trkpt>
    <trkpt lat="50.0673974" lon="19.9068829"></trkpt>
    <trkpt lat="50.0673714" lon="19.9069144"></trkpt>
    <trkpt lat="50.0669622" lon="19.9072661"></trkpt>
    <trkpt lat="50.0669491" lon="19.9072618"></trkpt>
    <trkpt lat="50.0668054" lon="19.9072363"></trkpt>
    <trkpt lat="50.0666729" lon="19.9072722"></trkpt>
    <trkpt lat="50.0666646" lon="19.907331"></trkpt>
    <trkpt lat="50.0666551" lon="19.9073942"></trkpt>
    <trkpt lat="50.0664526" lon="19.9073464"></trkpt>
    <trkpt lat="50.066349" lon="19.9073139"></trkpt>
    <trkpt lat="50.0663479" lon="19.9074701"></trkpt>
    <trkpt lat="50.0661717" lon="19.9087651"></trkpt>
    <trkpt lat="50.0661021" lon="19.9087437"></trkpt>
    <trkpt lat="50.0657567" lon="19.9087611"></trkpt>
    <trkpt lat="50.0655161" lon="19.9086607"></trkpt>
    <trkpt lat="50.0654864" lon="19.9086715"></trkpt>
    <trkpt lat="50.0654143" lon="19.9090311"></trkpt>
    </trkseg>
  </trk>
</gpx>