<?xml version="1.0" encoding="UTF-8"?>
<gpx version="1.1" creator="running-air"
     xmlns="http://www.topografix.com/GPX/1/1">
  <metadata><time>2026-10-10T11:20:33Z</time></metadata>
  <trk>
    <name>Najlepsza trasa biegowa Kraków</name>
    <trkseg>
    <trkpt lat="50.0654143" lon="19.9090311"></trkpt>
    <trkpt lat="50.0654864" lon="19.9086715"></trkpt>
    <trkpt lat="50.0655161" lon="19.9086607"></trkpt>
    <trkpt lat="50.0657567" lon="19.9087611"></trkpt>
    <trkpt lat="50.0661021" lon="19.9087437"></trkpt>
    <trkpt lat="50.0661717" lon="19.9087651"></trkpt>
    <trkpt lat="50.0661519" lon="19.9088797"></trkpt>
    <trkpt lat="50.0661051" lon="19.9095778"></trkpt>
    <trkpt lat="50.0655496" lon="19.9129204"></trkpt>
    <trkpt lat="50.0657025" lon="19.9135881"></trkpt>
    <trkpt lat="50.0656557" lon="19.9137935"></trkpt>
    <trkpt lat="50.0656019" lon="19.9140597"></trkpt>
    <trkpt lat="50.0650236" lon="19.9166316"></trkpt>
    <trkpt lat="50.0649888" lon="19.9167821"></trkpt>
    <trkpt lat="50.0645664" lon="19.9185905"></trkpt>
    <trkpt lat="50.0645103" lon="19.9188288"></trkpt>
    <trkpt lat="50.0643235" lon="19.9199681"></trkpt>
    <trkpt lat="50.0642607" lon="19.9203891"></trkpt>
    <trkpt lat="50.0641903" lon="19.9208519"></trkpt>
    <trkpt lat="50.0641435" lon="19.9211686"></trkpt>
    <trkpt lat="50.0639397" lon="19.9225319"></trkpt>
    <trkpt lat="50.0639247" lon="19.9226291"></trkpt>
    <trkpt lat="50.0639179" lon="19.9226753"></trkpt>
    <trkpt lat="50.0638028" lon="19.923423"></trkpt>
    <trkpt lat="50.0637764" lon="19.9234588"></trkpt>
    <trkpt lat="50.0637308" lon="19.9241487"></trkpt>
    <trkpt lat="50.0637896" lon="19.9261055"></trkpt>
    <trkpt lat="50.0637988" lon="19.9265362"></trkpt>
    <trkpt lat="50.0632206" lon="19.9266407"></trkpt>
    <trkpt lat="50.062994" lon="19.9265936"></trkpt>
    <trkpt lat="50.0629388" lon="19.9266376"></trkpt>
    <trkpt lat="50.0628977" lon="19.9266704"></trkpt>
    <trkpt lat="50.0629388" lon="19.9266376"></trkpt>
    <trkpt lat="50.062994" lon="19.9265936"></trkpt>
    <trkpt lat="50.0632206" lon="19.9266407"></trkpt>
    <trkpt lat="50.0637988" lon="19.9265362"></trkpt>
    <trkpt lat="50.0637896" lon="19.9261055"></trkpt>
    <trkpt lat="50.0637308" lon="19.9241487"></trkpt>
    <trkpt lat="50.0637764" lon="19.9234588"></trkpt>
    <trkpt lat="50.0638028" lon="19.923423"></trkpt>
    <trkpt lat="50.0639179" lon="19.9226753"></trkpt>
    <trkpt lat="50.0639247" lon="19.9226291"></trkpt>
    <trkpt lat="50.0639397" lon="19.9225319"></trkpt>
    <trkpt lat="50.0641435" lon="19.9211686"></trkpt>
    <trkpt lat="50.0641903" lon="19.9208519"></trkpt>
    <trkpt lat="50.0642607" lon="19.9203891"></trkpt>
    <trkpt lat="50.0643235" lon="19.9199681"></trkpt>
    <trkpt lat="50.0645103" lon="19.9188288"></trkpt>
    <trkpt lat="50.0645664" lon="19.9185905"></trkpt>
    <trkpt lat="50.0649888" lon="19.9167821"></trkpt>
    <trkpt lat="50.0650236" lon="19.9166316"></trkpt>
    <trkpt lat="50.0656019" lon="19.9140597"></trkpt>
    <trkpt lat="50.0656557" lon="19.9137935"></trkpt>
    <trkpt lat="50.0657025" lon="19.9135881"></trkpt>
    <trkpt lat="50.0655496" lon="19.9129204"></trkpt>
    <trkpt lat="50.0661051" lon="19.9095778"></trkpt>
    <trkpt lat="50.0661519" lon="19.9088797"></trkpt>
    <trkpt lat="50.0661717" lon="19.9087651"></trkpt>
    <trkpt lat="50.0661021" lon="19.9087437"></trkpt>
    <trkpt lat="50.0657567" lon="19.9087611"></trkpt>
    <trkpt lat="50.0655161" lon="19.9086607"></trkpt>
    <trkpt lat="50.0654864" lon="19.9086715"></trkpt>
    <trkpt lat="50.0654143" lon="19.9090311"></trkpt>
    </trkseg>
  </trk>
</gpx>