<?xml version="1.0" encoding="UTF-8"?>
<gpx version="1.1" creator="running-air"
     xmlns="http://www.topografix.com/GPX/1/1">
  <metadata><time>2026-10-10T11:20:53Z</time></metadata>
  <trk>
    <name>Najlepsza trasa biegowa Kraków</name>
    <trkseg>
    <trkpt lat="50.0654143" lon="19.9090311"></trkpt>
    <trkpt lat="50.0654864" lon="19.9086715"></trkpt>
    <trkpt lat="50.0655161" lon="19.9086607"></trkpt>
    <trkpt lat="50.0657567" lon="19.9087611"></trkpt>
    <trkpt lat="50.0661021" lon="19.9087437"></trkpt>
    <trkpt lat="50.0661717" lon="19.9087651"></trkpt>
    <trkpt lat="50.0663479" lon="19.9074701"></trkpt>
    <trkpt lat="50.066349" lon="19.9073139"></trkpt>
    <trkpt lat="50.0662134" lon="19.9072348"></trkpt>
    <trkpt lat="50.0659263" lon="19.9071519"></trkpt>
    <trkpt lat="50.0658894" lon="19.9071123"></trkpt>
    <trkpt lat="50.0656788" lon="19.9070326"></trkpt>
    <trkpt lat="50.0656151" lon="19.9070088"></trkpt>
    <trkpt lat="50.0635193" lon="19.9048398"></trkpt>
    <trkpt lat="50.0629451" lon="19.9041569"></trkpt>
    <trkpt lat="50.0629738" lon="19.904086"></trkpt>
    <trkpt lat="50.0629265" lon="19.9040504"></trkpt>
    <trkpt lat="50.0623855" lon="19.9037912"></trkpt>
    <trkpt lat="50.0625797" lon="19.9025533"></trkpt>
    <trkpt lat="50.062598" lon="19.9024451"></trkpt>
    <trkpt lat="50.062423" lon="19.9023109"></trkpt>
    <trkpt lat="50.0608915" lon="19.9011948"></trkpt>
    <trkpt lat="50.0603546" lon="19.9007577"></trkpt>
    <trkpt lat="50.059866" lon="19.9003247"></trkpt>
    <trkpt lat="50.0590328" lon="19.8992681"></trkpt>
    <trkpt lat="50.0588211" lon="19.8989913"></trkpt>
    <trkpt lat="50.058581" lon="19.8986825"></trkpt>
    <trkpt lat="50.0584089" lon="19.8985018"></trkpt>
    <trkpt lat="50.0576879" lon="19.9000359"></trkpt>
    <trkpt lat="50.0576429" lon="19.899987"></trkpt>
    <trkpt lat="50.0572328" lon="19.8964171"></trkpt>
    <trkpt lat="50.056738" lon="19.8954256"></trkpt>
    <trkpt lat="50.0566398" lon="19.8946282"></trkpt>
    <trkpt lat="50.0566084" lon="19.8943412"></trkpt>
    <trkpt lat="50.056627" lon="19.8937263"></trkpt>
    <trkpt lat="50.0567673" lon="19.8931155"></trkpt>
    <trkpt lat="50.0564801" lon="19.8904501"></trkpt>
    <trkpt lat="50.0573976" lon="19.8882994"></trkpt>
    <trkpt lat="50.0574302" lon="19.88665"></trkpt>
    <trkpt lat="50.0576261" lon="19.8857543"></trkpt>
    <trkpt lat="50.0576475" lon="19.8851834"></trkpt>
    <trkpt lat="50.0576542" lon="19.8851177"></trkpt>
    <trkpt lat="50.0578007" lon="19.8845024"></trkpt>
    <trkpt lat="50.0580084" lon="19.8840228"></trkpt>
    <trkpt lat="50.0579863" lon="19.882537"></trkpt>
    <trkpt lat="50.0581665" lon="19.8822863"></trkpt>
    <trkpt lat="50.0581933" lon="19.880985"></trkpt>
    <trkpt lat="50.0581785" lon="19.8808072"></trkpt>
    <trkpt lat="50.0581566" lon="19.8806364"></trkpt>
    <trkpt lat="50.0580264" lon="19.8767065"></trkpt>
    <trkpt lat="50.058014" lon="19.876622"></trkpt>
    <trkpt lat="50.057465" lon="19.8765053"></trkpt>
    <trkpt lat="50.0574669" lon="19.8763496"></trkpt>
    <trkpt lat="50.0573621" lon="19.8763327"></trkpt>
    <trkpt lat="50.0572106" lon="19.8760942"></trkpt>
    <trkpt lat="50.0571388" lon="19.8759843"></trkpt>
    <trkpt lat="50.0571844" lon="19.8755072"></trkpt>
    <trkpt lat="50.0570799" lon="19.8750364"></trkpt>
    <trkpt lat="50.0570648" lon="19.8748439"></trkpt>
    <trkpt lat="50.0570508" lon="19.8748176"></trkpt>
    <trkpt lat="50.0565769" lon="19.8736991"></trkpt>
    <trkpt lat="50.0559347" lon="19.871481"></trkpt>
    <trkpt lat="50.0556983" lon="19.8714841"></trkpt>
    <trkpt lat="50.0556276" lon="19.8714334"></trkpt>
    <trkpt lat="50.0549769" lon="19.8707001"></trkpt>
    <trkpt lat="50.054765" lon="19.8698001"></trkpt>
    <trkpt lat="50.05466" lon="19.86953"></trkpt>
    <trkpt lat="50.0543224" lon="19.8676184"></trkpt>
    <trkpt lat="50.0549035" lon="19.8667386"></trkpt>
    <trkpt lat="50.0551653" lon="19.866347"></trkpt>
    <trkpt lat="50.0556928" lon="19.8650648"></trkpt>
    <trkpt lat="50.0553453" lon="19.8620073"></trkpt>
    <trkpt lat="50.0554263" lon="19.859684"></trkpt>
    <trkpt lat="50.0553604" lon="19.8579258"></trkpt>
    <trkpt lat="50.0546845" lon="19.8562745"></trkpt>
    <trkpt lat="50.0545689" lon="19.8561312"></trkpt>
    <trkpt lat="50.0547112" lon="19.8553534"></trkpt>
    <trkpt lat="50.0548094" lon="19.8549668"></trkpt>
    <trkpt lat="50.0547818" lon="19.8549249"></trkpt>
    <trkpt lat="50.0547568" lon="19.854887"></trkpt>
    <trkpt lat="50.0551804" lon="19.8542806"></trkpt>
    <trkpt lat="50.0551694" lon="19.854249"></trkpt>
    <trkpt lat="50.0559667" lon="19.8537916"></trkpt>
    <trkpt lat="50.0543996" lon="19.8477473"></trkpt>
    <trkpt lat="50.0543556" lon="19.847586"></trkpt>
    <trkpt lat="50.0543333" lon="19.8473552"></trkpt>
    <trkpt lat="50.0546857" lon="19.8458946"></trkpt>
    <trkpt lat="50.0546371" lon="19.8455693"></trkpt>
    <trkpt lat="50.0546857" lon="19.8458946"></trkpt>
    <trkpt lat="50.0543333" lon="19.8473552"></trkpt>
    <trkpt lat="50.0543556" lon="19.847586"></trkpt>
    <trkpt lat="50.0543996" lon="19.8477473"></trkpt>
    <trkpt lat="50.0559667" lon="19.8537916"></trkpt>
    <trkpt lat="50.0551694" lon="19.854249"></trkpt>
    <trkpt lat="50.0551804" lon="19.8542806"></trkpt>
    <trkpt lat="50.0547568" lon="19.854887"></trkpt>
    <trkpt lat="50.0547818" lon="19.8549249"></trkpt>
    <trkpt lat="50.0548094" lon="19.8549668"></trkpt>
    <trkpt lat="50.0547112" lon="19.8553534"></trkpt>
    <trkpt lat="50.0545689" lon="19.8561312"></trkpt>
    <trkpt lat="50.0546845" lon="19.8562745"></trkpt>
    <trkpt lat="50.0553604" lon="19.8579258"></trkpt>
    <trkpt lat="50.0554263" lon="19.859684"></trkpt>
    <trkpt lat="50.0553453" lon="19.8620073"></trkpt>
    <trkpt lat="50.0556928" lon="19.8650648"></trkpt>
    <trkpt lat="50.0551653" lon="19.866347"></trkpt>
    <trkpt lat="50.0549035" lon="19.8667386"></trkpt>
    <trkpt lat="50.0543224" lon="19.8676184"></trkpt>
    <trkpt lat="50.05466" lon="19.86953"></trkpt>
    <trkpt lat="50.054765" lon="19.8698001"></trkpt>
    <trkpt lat="50.0549769" lon="19.8707001"></trkpt>
    <trkpt lat="50.0556276" lon="19.8714334"></trkpt>
    <trkpt lat="50.0556983" lon="19.8714841"></trkpt>
    <trkpt lat="50.0559347" lon="19.871481"></trkpt>
    <trkpt lat="50.0565769" lon="19.8736991"></trkpt>
    <trkpt lat="50.0570508" lon="19.8748176"></trkpt>
    <trkpt lat="50.0570648" lon="19.8748439"></trkpt>
    <trkpt lat="50.0570799" lon="19.8750364"></trkpt>
    <trkpt lat="50.0571844" lon="19.8755072"></trkpt>
    <trkpt lat="50.0571388" lon="19.8759843"></trkpt>
    <trkpt lat="50.0572106" lon="19.8760942"></trkpt>
    <trkpt lat="50.0573621" lon="19.8763327"></trkpt>
    <trkpt lat="50.0574669" lon="19.8763496"></trkpt>
    <trkpt lat="50.057465" lon="19.8765053"></trkpt>
    <trkpt lat="50.058014" lon="19.876622"></trkpt>
    <trkpt lat="50.0580264" lon="19.8767065"></trkpt>
    <trkpt lat="50.0581566" lon="19.8806364"></trkpt>
    <trkpt lat="50.0581785" lon="19.8808072"></trkpt>
    <trkpt lat="50.0581933" lon="19.880985"></trkpt>
    <trkpt lat="50.0581665" lon="19.8822863"></trkpt>
    <trkpt lat="50.0579863" lon="19.882537"></trkpt>
    <trkpt lat="50.0580084" lon="19.8840228"></trkpt>
    <trkpt lat="50.0578007" lon="19.8845024"></trkpt>
    <trkpt lat="50.0576542" lon="19.8851177"></trkpt>
    <trkpt lat="50.0576475" lon="19.8851834"></trkpt>
    <trkpt lat="50.0576261" lon="19.8857543"></trkpt>
    <trkpt lat="50.0574302" lon="19.88665"></trkpt>
    <trkpt lat="50.0573976" lon="19.8882994"></trkpt>
    <trkpt lat="50.0564801" lon="19.8904501"></trkpt>
    <trkpt lat="50.0567673" lon="19.8931155"></trkpt>
    <trkpt lat="50.056627" lon="19.8937263"></trkpt>
    <trkpt lat="50.0566084" lon="19.8943412"></trkpt>
    <trkpt lat="50.0566398" lon="19.8946282"></trkpt>
    <trkpt lat="50.056738" lon="19.8954256"></trkpt>
    <trkpt lat="50.0572328" lon="19.8964171"></trkpt>
    <trkpt lat="50.0576429" lon="19.899987"></trkpt>
    <trkpt lat="50.0576879" lon="19.9000359"></trkpt>
    <trkpt lat="50.0584089" lon="19.8985018"></trkpt>
    <trkpt lat="50.058581" lon="19.8986825"></trkpt>
    <trkpt lat="50.0588211" lon="19.8989913"></trkpt>
    <trkpt lat="50.0590328" lon="19.8992681"></trkpt>
    <trkpt lat="50.059866" lon="19.9003247"></trkpt>
    <trkpt lat="50.0603546" lon="19.9007577"></trkpt>
    <trkpt lat="50.0608915" lon="19.9011948"></trkpt>
    <trkpt lat="50.062423" lon="19.9023109"></trkpt>
    <trkpt lat="50.062598" lon="19.9024451"></trkpt>
    <trkpt lat="50.0625797" lon="19.9025533"></trkpt>
    <trkpt lat="50.0623855" lon="19.9037912"></trkpt>
    <trkpt lat="50.0629265" lon="19.9040504"></trkpt>
    <trkpt lat="50.0629738" lon="19.904086"></trkpt>
    <trkpt lat="50.0629451" lon="19.9041569"></trkpt>
    <trkpt lat="50.0635193" lon="19.9048398"></trkpt>
    <trkpt lat="50.0656151" lon="19.9070088"></trkpt>
    <trkpt lat="50.0656788" lon="19.9070326"></trkpt>
    <trkpt lat="50.0658894" lon="19.9071123"></trkpt>
    <trkpt lat="50.0659263" lon="19.9071519"></trkpt>
    <trkpt lat="50.0662134" lon="19.9072348"></trkpt>
    <trkpt lat="50.066349" lon="19.9073139"></trkpt>
    <trkpt lat="50.0663479" lon="19.9074701"></trkpt>
    <trkpt lat="50.0661717" lon="19.9087651"></trkpt>
    <trkpt lat="50.0661021" lon="19.9087437"></trkpt>
    <trkpt lat="50.0657567" lon="19.9087611"></trkpt>
    <trkpt lat="50.0655161" lon="19.9086607"></trkpt>
    <trkpt lat="50.0654864" lon="19.9086715"></trkpt>
    <trkpt lat="50.0654143" lon="19.9090311"></trkpt>
    </trkseg>
  </trk>
</gpx>