<?xml version="1.0" encoding="UTF-8"?>
<gpx version="1.1" creator="running-air"
     xmlns="http://www.topografix.com/GPX/1/1">
  <metadata><time>2026-10-09T18:48:07Z</time></metadata>
  <trk>
    <name>Najlepsza trasa biegowa Kraków</name>
    <trkseg>
    <trkpt lat="50.0654143" lon="19.9090311"></trkpt>
    <trkpt lat="50.0654864" lon="19.9086715"></trkpt>
    <trkpt lat="50.0655161" lon="19.9086607"></trkpt>
    <trkpt lat="50.0657567" lon="19.9087611"></trkpt>
    <trkpt lat="50.0661021" lon="19.9087437"></trkpt>
    <trkpt lat="50.0661717" lon="19.9087651"></trkpt>
    <trkpt lat="50.0663479" lon="19.9074701"></trkpt>
    <trkpt lat="50.066349" lon="19.9073139"></trkpt>
    <trkpt lat="50.0664526" lon="19.9073464"></trkpt>
    <trkpt lat="50.0666551" lon="19.9073942"></trkpt>
    <trkpt lat="50.0666646" lon="19.907331"></trkpt>
    <trkpt lat="50.0666729" lon="19.9072722"></trkpt>
    <trkpt lat="50.0668054" lon="19.9072363"></trkpt>
    <trkpt lat="50.0669491" lon="19.9072618"></trkpt>
    <trkpt lat="50.0669622" lon="19.9072661"></trkpt>
    <trkpt lat="50.0673714" lon="19.9069144"></trkpt>
    <trkpt lat="50.0673974" lon="19.9068829"></trkpt>
    <trkpt lat="50.0678526" lon="19.9066709"></trkpt>
    <trkpt lat="50.0679501" lon="19.9065735"></trkpt>
    <trkpt lat="50.068049" lon="19.9064744"></trkpt>
    <trkpt lat="50.0680813" lon="19.9064511"></trkpt>
    <trkpt lat="50.0682232" lon="19.9063322"></trkpt>
    <trkpt lat="50.0682531" lon="19.9061314"></trkpt>
    <trkpt lat="50.068366" lon="19.9059326"></trkpt>
    <trkpt lat="50.0683911" lon="19.9058836"></trkpt>
    <trkpt lat="50.0685945" lon="19.9055571"></trkpt>
    <trkpt lat="50.0686235" lon="19.9055663"></trkpt>
    <trkpt lat="50.0686336" lon="19.9051411"></trkpt>
    <trkpt lat="50.0686418" lon="19.9050892"></trkpt>
    <trkpt lat="50.0686676" lon="19.9049404"></trkpt>
    <trkpt lat="50.0686775" lon="19.9048742"></trkpt>
    <trkpt lat="50.0686866" lon="19.9048147"></trkpt>
    <trkpt lat="50.0687146" lon="19.9046321"></trkpt>
    <trkpt lat="50.06878" lon="19.9046577"></trkpt>
    <trkpt lat="50.0690858" lon="19.9046391"></trkpt>
    <trkpt lat="50.0691704" lon="19.9046332"></trkpt>
    <trkpt lat="50.0692157" lon="19.9046287"></trkpt>
    <trkpt lat="50.0696099" lon="19.9046014"></trkpt>
    <trkpt lat="50.0696917" lon="19.9045945"></trkpt>
    <trkpt lat="50.0698122" lon="19.9045868"></trkpt>
    <trkpt lat="50.0698692" lon="19.9041623"></trkpt>
    <trkpt lat="50.069843" lon="19.9040836"></trkpt>
    <trkpt lat="50.0698642" lon="19.903965"></trkpt>
    <trkpt lat="50.0698868" lon="19.9038412"></trkpt>
    <trkpt lat="50.0699082" lon="19.9037285"></trkpt>
    <trkpt lat="50.0699205" lon="19.9036656"></trkpt>
    <trkpt lat="50.0699344" lon="19.9035743"></trkpt>
    <trkpt lat="50.0699498" lon="19.9034771"></trkpt>
    <trkpt lat="50.0700954" lon="19.9024527"></trkpt>
    <trkpt lat="50.0701578" lon="19.9020047"></trkpt>
    <trkpt lat="50.0704151" lon="19.9001497"></trkpt>
    <trkpt lat="50.0704814" lon="19.8997105"></trkpt>
    <trkpt lat="50.070557" lon="19.8992845"></trkpt>
    <trkpt lat="50.0706002" lon="19.8989622"></trkpt>
    <trkpt lat="50.0707156" lon="19.8982898"></trkpt>
    <trkpt lat="50.0707876" lon="19.897847"></trkpt>
    <trkpt lat="50.0708993" lon="19.8968669"></trkpt>
    <trkpt lat="50.0709976" lon="19.895786"></trkpt>
    <trkpt lat="50.0710251" lon="19.8954514"></trkpt>
    <trkpt lat="50.0710165" lon="19.8954263"></trkpt>
    <trkpt lat="50.0710245" lon="19.8953333"></trkpt>
    <trkpt lat="50.071034" lon="19.8952204"></trkpt>
    <trkpt lat="50.0710469" lon="19.8951385"></trkpt>
    <trkpt lat="50.0710948" lon="19.8949704"></trkpt>
    <trkpt lat="50.071466" lon="19.8924244"></trkpt>
    <trkpt lat="50.0715319" lon="19.8918145"></trkpt>
    <trkpt lat="50.0715326" lon="19.8917998"></trkpt>
    <trkpt lat="50.0715942" lon="19.891314"></trkpt>
    <trkpt lat="50.0716454" lon="19.8909109"></trkpt>
    <trkpt lat="50.071792" lon="19.8898624"></trkpt>
    <trkpt lat="50.0723574" lon="19.8882666"></trkpt>
    <trkpt lat="50.0733023" lon="19.8877345"></trkpt>
    <trkpt lat="50.073316" lon="19.8875959"></trkpt>
    <trkpt lat="50.073361" lon="19.8873592"></trkpt>
    <trkpt lat="50.0732126" lon="19.8858361"></trkpt>
    <trkpt lat="50.0733076" lon="19.8835939"></trkpt>
    <trkpt lat="50.0736025" lon="19.881402"></trkpt>
    <trkpt lat="50.0732262" lon="19.8813386"></trkpt>
    <trkpt lat="50.0731885" lon="19.8807367"></trkpt>
    <trkpt lat="50.0732683" lon="19.8802109"></trkpt>
    <trkpt lat="50.0747805" lon="19.8776697"></trkpt>
    <trkpt lat="50.074915" lon="19.8778322"></trkpt>
    <trkpt lat="50.0750636" lon="19.8772222"></trkpt>
    <trkpt lat="50.0750926" lon="19.876795"></trkpt>
    <trkpt lat="50.0751286" lon="19.8762932"></trkpt>
    <trkpt lat="50.0755208" lon="19.8746048"></trkpt>
    <trkpt lat="50.0755838" lon="19.8745735"></trkpt>
    <trkpt lat="50.0758452" lon="19.8744406"></trkpt>
    <trkpt lat="50.0759089" lon="19.8724955"></trkpt>
    <trkpt lat="50.0760556" lon="19.8702027"></trkpt>
    <trkpt lat="50.0762427" lon="19.8702111"></trkpt>
    <trkpt lat="50.0764561" lon="19.8698326"></trkpt>
    <trkpt lat="50.076473" lon="19.8663816"></trkpt>
    <trkpt lat="50.076469" lon="19.8663684"></trkpt>
    <trkpt lat="50.0764166" lon="19.8652626"></trkpt>
    <trkpt lat="50.0770788" lon="19.8616473"></trkpt>
    <trkpt lat="50.0771442" lon="19.861285"></trkpt>
    <trkpt lat="50.0775582" lon="19.8592471"></trkpt>
    <trkpt lat="50.0766679" lon="19.8587965"></trkpt>
    <trkpt lat="50.0768223" lon="19.8583525"></trkpt>
    <trkpt lat="50.0768952" lon="19.856987"></trkpt>
    <trkpt lat="50.0768751" lon="19.8561737"></trkpt>
    <trkpt lat="50.0774323" lon="19.854676"></trkpt>
    <trkpt lat="50.0780205" lon="19.8495073"></trkpt>
    <trkpt lat="50.0795634" lon="19.8439521"></trkpt>
    <trkpt lat="50.0801082" lon="19.8432049"></trkpt>
    <trkpt lat="50.0795634" lon="19.8439521"></trkpt>
    <trkpt lat="50.0780205" lon="19.8495073"></trkpt>
    <trkpt lat="50.0774323" lon="19.854676"></trkpt>
    <trkpt lat="50.0768751" lon="19.8561737"></trkpt>
    <trkpt lat="50.0768952" lon="19.856987"></trkpt>
    <trkpt lat="50.0768223" lon="19.8583525"></trkpt>
    <trkpt lat="50.0766679" lon="19.8587965"></trkpt>
    <trkpt lat="50.0775582" lon="19.8592471"></trkpt>
    <trkpt lat="50.0771442" lon="19.861285"></trkpt>
    <trkpt lat="50.0770788" lon="19.8616473"></trkpt>
    <trkpt lat="50.0764166" lon="19.8652626"></trkpt>
    <trkpt lat="50.076469" lon="19.8663684"></trkpt>
    <trkpt lat="50.076473" lon="19.8663816"></trkpt>
    <trkpt lat="50.0764561" lon="19.8698326"></trkpt>
    <trkpt lat="50.0762427" lon="19.8702111"></trkpt>
    <trkpt lat="50.0760556" lon="19.8702027"></trkpt>
    <trkpt lat="50.0759089" lon="19.8724955"></trkpt>
    <trkpt lat="50.0758452" lon="19.8744406"></trkpt>
    <trkpt lat="50.0755838" lon="19.8745735"></trkpt>
    <trkpt lat="50.0755208" lon="19.8746048"></trkpt>
    <trkpt lat="50.0751286" lon="19.8762932"></trkpt>
    <trkpt lat="50.0750926" lon="19.876795"></trkpt>
    <trkpt lat="50.0750636" lon="19.8772222"></trkpt>
    <trkpt lat="50.074915" lon="19.8778322"></trkpt>
    <trkpt lat="50.0747805" lon="19.8776697"></trkpt>
    <trkpt lat="50.0732683" lon="19.8802109"></trkpt>
    <trkpt lat="50.0731885" lon="19.8807367"></trkpt>
    <trkpt lat="50.0732262" lon="19.8813386"></trkpt>
    <trkpt lat="50.0736025" lon="19.881402"></trkpt>
    <trkpt lat="50.0733076" lon="19.8835939"></trkpt>
    <trkpt lat="50.0732126" lon="19.8858361"></trkpt>
    <trkpt lat="50.073361" lon="19.8873592"></trkpt>
    <trkpt lat="50.073316" lon="19.8875959"></trkpt>
    <trkpt lat="50.0733023" lon="19.8877345"></trkpt>
    <trkpt lat="50.0723574" lon="19.8882666"></trkpt>
    <trkpt lat="50.071792" lon="19.8898624"></trkpt>
    <trkpt lat="50.0716454" lon="19.8909109"></trkpt>
    <trkpt lat="50.0715942" lon="19.891314"></trkpt>
    <trkpt lat="50.0715326" lon="19.8917998"></trkpt>
    <trkpt lat="50.0715319" lon="19.8918145"></trkpt>
    <trkpt lat="50.071466" lon="19.8924244"></trkpt>
    <trkpt lat="50.0710948" lon="19.8949704"></trkpt>
    <trkpt lat="50.0710469" lon="19.8951385"></trkpt>
    <trkpt lat="50.071034" lon="19.8952204"></trkpt>
    <trkpt lat="50.0710245" lon="19.8953333"></trkpt>
    <trkpt lat="50.0710165" lon="19.8954263"></trkpt>
    <trkpt lat="50.0710251" lon="19.8954514"></trkpt>
    <trkpt lat="50.0709976" lon="19.895786"></trkpt>
    <trkpt lat="50.0708993" lon="19.8968669"></trkpt>
    <trkpt lat="50.0707876" lon="19.897847"></trkpt>
    <trkpt lat="50.0707156" lon="19.8982898"></trkpt>
    <trkpt lat="50.0706002" lon="19.8989622"></trkpt>
    <trkpt lat="50.070557" lon="19.8992845"></trkpt>
    <trkpt lat="50.0704814" lon="19.8997105"></trkpt>
    <trkpt lat="50.0704151" lon="19.9001497"></trkpt>
    <trkpt lat="50.0701578" lon="19.9020047"></trkpt>
    <trkpt lat="50.0700954" lon="19.9024527"></trkpt>
    <trkpt lat="50.0699498" lon="19.9034771"></trkpt>
    <trkpt lat="50.0699344" lon="19.9035743"></trkpt>
    <trkpt lat="50.0699205" lon="19.9036656"></trkpt>
    <trkpt lat="50.0699082" lon="19.9037285"></trkpt>
    <trkpt lat="50.0698868" lon="19.9038412"></trkpt>
    <trkpt lat="50.0698642" lon="19.903965"></trkpt>
    <trkpt lat="50.069843" lon="19.9040836"></trkpt>
    <trkpt lat="50.0698692" lon="19.9041623"></trkpt>
    <trkpt lat="50.0698122" lon="19.9045868"></trkpt>
    <trkpt lat="50.0696917" lon="19.9045945"></trkpt>
    <trkpt lat="50.0696099" lon="19.9046014"></trkpt>
    <trkpt lat="50.0692157" lon="19.9046287"></trkpt>
    <trkpt lat="50.0691704" lon="19.9046332"></trkpt>
    <trkpt lat="50.0690858" lon="19.9046391"></trkpt>
    <trkpt lat="50.06878" lon="19.9046577"></trkpt>
    <trkpt lat="50.0687146" lon="19.9046321"></trkpt>
    <trkpt lat="50.0686866" lon="19.9048147"></trkpt>
    <trkpt lat="50.0686775" lon="19.9048742"></trkpt>
    <trkpt lat="50.0686676" lon="19.9049404"></trkpt>
    <trkpt lat="50.0686418" lon="19.9050892"></trkpt>
    <trkpt lat="50.0686336" lon="19.9051411"></trkpt>
    <trkpt lat="50.0686235" lon="19.9055663"></trkpt>
    <trkpt lat="50.0685945" lon="19.9055571"></trkpt>
    <trkpt lat="50.0683911" lon="19.9058836"></trkpt>
    <trkpt lat="50.068366" lon="19.9059326"></trkpt>
    <trkpt lat="50.0682531" lon="19.9061314"></trkpt>
    <trkpt lat="50.0682232" lon="19.9063322"></trkpt>
    <trkpt lat="50.0680813" lon="19.9064511"></trkpt>
    <trkpt lat="50.068049" lon="19.9064744"></trkpt>
    <trkpt lat="50.0679501" lon="19.9065735"></trkpt>
    <trkpt lat="50.0678526" lon="19.9066709"></trkpt>
    <trkpt lat="50.0673974" lon="19.9068829"></trkpt>
    <trkpt lat="50.0673714" lon="19.9069144"></trkpt>
    <trkpt lat="50.0669622" lon="19.9072661"></trkpt>
    <trkpt lat="50.0669491" lon="19.9072618"></trkpt>
    <trkpt lat="50.0668054" lon="19.9072363"></trkpt>
    <trkpt lat="50.0666729" lon="19.9072722"></trkpt>
    <trkpt lat="50.0666646" lon="19.907331"></trkpt>
    <trkpt lat="50.0666551" lon="19.9073942"></trkpt>
    <trkpt lat="50.0664526" lon="19.9073464"></trkpt>
    <trkpt lat="50.066349" lon="19.9073139"></trkpt>
    <trkpt lat="50.0663479" lon="19.9074701"></trkpt>
    <trkpt lat="50.0661717" lon="19.9087651"></trkpt>
    <trkpt lat="50.0661021" lon="19.9087437"></trkpt>
    <trkpt lat="50.0657567" lon="19.9087611"></trkpt>
    <trkpt lat="50.0655161" lon="19.9086607"></trkpt>
    <trkpt lat="50.0654864" lon="19.9086715"></trkpt>
    <trkpt lat="50.0654143" lon="19.9090311"></trkpt>
    </trkseg>
  </trk>
</gpx>