<?xml version="1.0" encoding="UTF-8"?>
<gpx version="1.1" creator="running-air"
     xmlns="http://www.topografix.com/GPX/1/1">
  <metadata><time>2026-10-10T11:20:45Z</time></metadata>
  <trk>
    <name>Najlepsza trasa biegowa Kraków</name>
    <trkseg>
    <trkpt lat="50.0654143" lon="19.9090311"></trkpt>
    <trkpt lat="50.0654864" lon="19.9086715"></trkpt>
    <trkpt lat="50.0655161" lon="19.9086607"></trkpt>
    <trkpt lat="50.0657567" lon="19.9087611"></trkpt>
    <trkpt lat="50.0661021" lon="19.9087437"></trkpt>
    <trkpt lat="50.0661717" lon="19.9087651"></trkpt>
    <trkpt lat="50.0661519" lon="19.9088797"></trkpt>
    <trkpt lat="50.0661051" lon="19.9095778"></trkpt>
    <trkpt lat="50.0655496" lon="19.9129204"></trkpt>
    <trkpt lat="50.0657025" lon="19.9135881"></trkpt>
    <trkpt lat="50.0656557" lon="19.9137935"></trkpt>
    <trkpt lat="50.0656019" lon="19.9140597"></trkpt>
    <trkpt lat="50.0650236" lon="19.9166316"></trkpt>
    <trkpt lat="50.0649888" lon="19.9167821"></trkpt>
    <trkpt lat="50.0645664" lon="19.9185905"></trkpt>
    <trkpt lat="50.0645103" lon="19.9188288"></trkpt>
    <trkpt lat="50.0643235" lon="19.9199681"></trkpt>
    <trkpt lat="50.0642607" lon="19.9203891"></trkpt>
    <trkpt lat="50.0641903" lon="19.9208519"></trkpt>
    <trkpt lat="50.0641435" lon="19.9211686"></trkpt>
    <trkpt lat="50.0641187" lon="19.921137"></trkpt>
    <trkpt lat="50.0640714" lon="19.9211317"></trkpt>
    <trkpt lat="50.0638174" lon="19.9218008"></trkpt>
    <trkpt lat="50.0636605" lon="19.9221291"></trkpt>
    <trkpt lat="50.0635607" lon="19.9223408"></trkpt>
    <trkpt lat="50.0634792" lon="19.9225123"></trkpt>
    <trkpt lat="50.0634501" lon="19.9225773"></trkpt>
    <trkpt lat="50.0630898" lon="19.9230357"></trkpt>
    <trkpt lat="50.0630621" lon="19.9230719"></trkpt>
    <trkpt lat="50.0630761" lon="19.9231862"></trkpt>
    <trkpt lat="50.0630778" lon="19.9232148"></trkpt>
    <trkpt lat="50.0626428" lon="19.9230891"></trkpt>
    <trkpt lat="50.0623006" lon="19.9231355"></trkpt>
    <trkpt lat="50.0622095" lon="19.9235394"></trkpt>
    <trkpt lat="50.062145" lon="19.923879"></trkpt>
    <trkpt lat="50.0609781" lon="19.9244668"></trkpt>
    <trkpt lat="50.0608665" lon="19.924523"></trkpt>
    <trkpt lat="50.0604612" lon="19.9247525"></trkpt>
    <trkpt lat="50.0595381" lon="19.9253072"></trkpt>
    <trkpt lat="50.0595457" lon="19.9253663"></trkpt>
    <trkpt lat="50.0593815" lon="19.925462"></trkpt>
    <trkpt lat="50.0592858" lon="19.9255177"></trkpt>
    <trkpt lat="50.0592449" lon="19.925474"></trkpt>
    <trkpt lat="50.0582748" lon="19.9261099"></trkpt>
    <trkpt lat="50.0582518" lon="19.926124"></trkpt>
    <trkpt lat="50.058175" lon="19.9261732"></trkpt>
    <trkpt lat="50.0562549" lon="19.9272482"></trkpt>
    <trkpt lat="50.0561839" lon="19.9272687"></trkpt>
    <trkpt lat="50.0561464" lon="19.9272802"></trkpt>
    <trkpt lat="50.0561219" lon="19.9272921"></trkpt>
    <trkpt lat="50.0554691" lon="19.9277698"></trkpt>
    <trkpt lat="50.0554285" lon="19.9278203"></trkpt>
    <trkpt lat="50.0553918" lon="19.9278651"></trkpt>
    <trkpt lat="50.0553357" lon="19.9279348"></trkpt>
    <trkpt lat="50.055285" lon="19.9279949"></trkpt>
    <trkpt lat="50.0552014" lon="19.9278541"></trkpt>
    <trkpt lat="50.0550661" lon="19.9278255"></trkpt>
    <trkpt lat="50.0550248" lon="19.9278083"></trkpt>
    <trkpt lat="50.0533948" lon="19.9290671"></trkpt>
    <trkpt lat="50.0532319" lon="19.929265"></trkpt>
    <trkpt lat="50.053198" lon="19.9292854"></trkpt>
    <trkpt lat="50.0531674" lon="19.9293123"></trkpt>
    <trkpt lat="50.0529167" lon="19.9295509"></trkpt>
    <trkpt lat="50.0526956" lon="19.9296367"></trkpt>
    <trkpt lat="50.0526339" lon="19.929683"></trkpt>
    <trkpt lat="50.051824" lon="19.9303194"></trkpt>
    <trkpt lat="50.0517521" lon="19.9303635"></trkpt>
    <trkpt lat="50.0516971" lon="19.9304049"></trkpt>
    <trkpt lat="50.0507512" lon="19.9311701"></trkpt>
    <trkpt lat="50.049823" lon="19.9321332"></trkpt>
    <trkpt lat="50.0498389" lon="19.9321777"></trkpt>
    <trkpt lat="50.0498106" lon="19.9322223"></trkpt>
    <trkpt lat="50.0495433" lon="19.9326214"></trkpt>
    <trkpt lat="50.0493977" lon="19.9327272"></trkpt>
    <trkpt lat="50.0489622" lon="19.9330645"></trkpt>
    <trkpt lat="50.0488096" lon="19.9331738"></trkpt>
    <trkpt lat="50.0483692" lon="19.9332929"></trkpt>
    <trkpt lat="50.0481001" lon="19.9335058"></trkpt>
    <trkpt lat="50.0476851" lon="19.933808"></trkpt>
    <trkpt lat="50.0475841" lon="19.9339183"></trkpt>
    <trkpt lat="50.0470541" lon="19.9343632"></trkpt>
    <trkpt lat="50.0469792" lon="19.9344346"></trkpt>
    <trkpt lat="50.0465846" lon="19.9347967"></trkpt>
    <trkpt lat="50.0458247" lon="19.9357299"></trkpt>
    <trkpt lat="50.0457568" lon="19.9358524"></trkpt>
    <trkpt lat="50.0456117" lon="19.9361352"></trkpt>
    <trkpt lat="50.045538" lon="19.9363093"></trkpt>
    <trkpt lat="50.0452872" lon="19.9369282"></trkpt>
    <trkpt lat="50.0450215" lon="19.9376016"></trkpt>
    <trkpt lat="50.0447299" lon="19.9381984"></trkpt>
    <trkpt lat="50.0447066" lon="19.9382639"></trkpt>
    <trkpt lat="50.0444833" lon="19.9389396"></trkpt>
    <trkpt lat="50.0443423" lon="19.9395432"></trkpt>
    <trkpt lat="50.0443354" lon="19.939643"></trkpt>
    <trkpt lat="50.0442971" lon="19.9396365"></trkpt>
    <trkpt lat="50.0442749" lon="19.9398778"></trkpt>
    <trkpt lat="50.0441848" lon="19.9401392"></trkpt>
    <trkpt lat="50.0436083" lon="19.9409904"></trkpt>
    <trkpt lat="50.0435221" lon="19.9411046"></trkpt>
    <trkpt lat="50.0429458" lon="19.941888"></trkpt>
    <trkpt lat="50.0428481" lon="19.9420208"></trkpt>
    <trkpt lat="50.0427342" lon="19.942172"></trkpt>
    <trkpt lat="50.0419268" lon="19.943247"></trkpt>
    <trkpt lat="50.0418417" lon="19.9433611"></trkpt>
    <trkpt lat="50.0413444" lon="19.9430602"></trkpt>
    <trkpt lat="50.0412772" lon="19.9430218"></trkpt>
    <trkpt lat="50.0413444" lon="19.9430602"></trkpt>
    <trkpt lat="50.0418417" lon="19.9433611"></trkpt>
    <trkpt lat="50.0419268" lon="19.943247"></trkpt>
    <trkpt lat="50.0427342" lon="19.942172"></trkpt>
    <trkpt lat="50.0428481" lon="19.9420208"></trkpt>
    <trkpt lat="50.0429458" lon="19.941888"></trkpt>
    <trkpt lat="50.0435221" lon="19.9411046"></trkpt>
    <trkpt lat="50.0436083" lon="19.9409904"></trkpt>
    <trkpt lat="50.0441848" lon="19.9401392"></trkpt>
    <trkpt lat="50.0442749" lon="19.9398778"></trkpt>
    <trkpt lat="50.0442971" lon="19.9396365"></trkpt>
    <trkpt lat="50.0443354" lon="19.939643"></trkpt>
    <trkpt lat="50.0443423" lon="19.9395432"></trkpt>
    <trkpt lat="50.0444833" lon="19.9389396"></trkpt>
    <trkpt lat="50.0447066" lon="19.9382639"></trkpt>
    <trkpt lat="50.0447299" lon="19.9381984"></trkpt>
    <trkpt lat="50.0450215" lon="19.9376016"></trkpt>
    <trkpt lat="50.0452872" lon="19.9369282"></trkpt>
    <trkpt lat="50.045538" lon="19.9363093"></trkpt>
    <trkpt lat="50.0456117" lon="19.9361352"></trkpt>
    <trkpt lat="50.0457568" lon="19.9358524"></trkpt>
    <trkpt lat="50.0458247" lon="19.9357299"></trkpt>
    <trkpt lat="50.0465846" lon="19.9347967"></trkpt>
    <trkpt lat="50.0469792" lon="19.9344346"></trkpt>
    <trkpt lat="50.0470541" lon="19.9343632"></trkpt>
    <trkpt lat="50.0475841" lon="19.9339183"></trkpt>
    <trkpt lat="50.0476851" lon="19.933808"></trkpt>
    <trkpt lat="50.0481001" lon="19.9335058"></trkpt>
    <trkpt lat="50.0483692" lon="19.9332929"></trkpt>
    <trkpt lat="50.0488096" lon="19.9331738"></trkpt>
    <trkpt lat="50.0489622" lon="19.9330645"></trkpt>
    <trkpt lat="50.0493977" lon="19.9327272"></trkpt>
    <trkpt lat="50.0495433" lon="19.9326214"></trkpt>
    <trkpt lat="50.0498106" lon="19.9322223"></trkpt>
    <trkpt lat="50.0498389" lon="19.9321777"></trkpt>
    <trkpt lat="50.049823" lon="19.9321332"></trkpt>
    <trkpt lat="50.0507512" lon="19.9311701"></trkpt>
    <trkpt lat="50.0516971" lon="19.9304049"></trkpt>
    <trkpt lat="50.0517521" lon="19.9303635"></trkpt>
    <trkpt lat="50.051824" lon="19.9303194"></trkpt>
    <trkpt lat="50.0526339" lon="19.929683"></trkpt>
    <trkpt lat="50.0526956" lon="19.9296367"></trkpt>
    <trkpt lat="50.0529167" lon="19.9295509"></trkpt>
    <trkpt lat="50.0531674" lon="19.9293123"></trkpt>
    <trkpt lat="50.053198" lon="19.9292854"></trkpt>
    <trkpt lat="50.0532319" lon="19.929265"></trkpt>
    <trkpt lat="50.0533948" lon="19.9290671"></trkpt>
    <trkpt lat="50.0550248" lon="19.9278083"></trkpt>
    <trkpt lat="50.0550661" lon="19.9278255"></trkpt>
    <trkpt lat="50.0552014" lon="19.9278541"></trkpt>
    <trkpt lat="50.055285" lon="19.9279949"></trkpt>
    <trkpt lat="50.0553357" lon="19.9279348"></trkpt>
    <trkpt lat="50.0553918" lon="19.9278651"></trkpt>
    <trkpt lat="50.0554285" lon="19.9278203"></trkpt>
    <trkpt lat="50.0554691" lon="19.9277698"></trkpt>
    <trkpt lat="50.0561219" lon="19.9272921"></trkpt>
    <trkpt lat="50.0561464" lon="19.9272802"></trkpt>
    <trkpt lat="50.0561839" lon="19.9272687"></trkpt>
    <trkpt lat="50.0562549" lon="19.9272482"></trkpt>
    <trkpt lat="50.058175" lon="19.9261732"></trkpt>
    <trkpt lat="50.0582518" lon="19.926124"></trkpt>
    <trkpt lat="50.0582748" lon="19.9261099"></trkpt>
    <trkpt lat="50.0592449" lon="19.925474"></trkpt>
    <trkpt lat="50.0592858" lon="19.9255177"></trkpt>
    <trkpt lat="50.0593815" lon="19.925462"></trkpt>
    <trkpt lat="50.0595457" lon="19.9253663"></trkpt>
    <trkpt lat="50.0595381" lon="19.9253072"></trkpt>
    <trkpt lat="50.0604612" lon="19.9247525"></trkpt>
    <trkpt lat="50.0608665" lon="19.924523"></trkpt>
    <trkpt lat="50.0609781" lon="19.9244668"></trkpt>
    <trkpt lat="50.062145" lon="19.923879"></trkpt>
    <trkpt lat="50.0622095" lon="19.9235394"></trkpt>
    <trkpt lat="50.0623006" lon="19.9231355"></trkpt>
    <trkpt lat="50.0626428" lon="19.9230891"></trkpt>
    <trkpt lat="50.0630778" lon="19.9232148"></trkpt>
    <trkpt lat="50.0630761" lon="19.9231862"></trkpt>
    <trkpt lat="50.0630621" lon="19.9230719"></trkpt>
    <trkpt lat="50.0630898" lon="19.9230357"></trkpt>
    <trkpt lat="50.0634501" lon="19.9225773"></trkpt>
    <trkpt lat="50.0634792" lon="19.9225123"></trkpt>
    <trkpt lat="50.0635607" lon="19.9223408"></trkpt>
    <trkpt lat="50.0636605" lon="19.9221291"></trkpt>
    <trkpt lat="50.0638174" lon="19.9218008"></trkpt>
    <trkpt lat="50.0640714" lon="19.9211317"></trkpt>
    <trkpt lat="50.0641187" lon="19.921137"></trkpt>
    <trkpt lat="50.0641435" lon="19.9211686"></trkpt>
    <trkpt lat="50.0641903" lon="19.9208519"></trkpt>
    <trkpt lat="50.0642607" lon="19.9203891"></trkpt>
    <trkpt lat="50.0643235" lon="19.9199681"></trkpt>
    <trkpt lat="50.0645103" lon="19.9188288"></trkpt>
    <trkpt lat="50.0645664" lon="19.9185905"></trkpt>
    <trkpt lat="50.0649888" lon="19.9167821"></trkpt>
    <trkpt lat="50.0650236" lon="19.9166316"></trkpt>
    <trkpt lat="50.0656019" lon="19.9140597"></trkpt>
    <trkpt lat="50.0656557" lon="19.9137935"></trkpt>
    <trkpt lat="50.0657025" lon="19.9135881"></trkpt>
    <trkpt lat="50.0655496" lon="19.9129204"></trkpt>
    <trkpt lat="50.0661051" lon="19.9095778"></trkpt>
    <trkpt lat="50.0661519" lon="19.9088797"></trkpt>
    <trkpt lat="50.0661717" lon="19.9087651"></trkpt>
    <trkpt lat="50.0661021" lon="19.9087437"></trkpt>
    <trkpt lat="50.0657567" lon="19.9087611"></trkpt>
    <trkpt lat="50.0655161" lon="19.9086607"></trkpt>
    <trkpt lat="50.0654864" lon="19.9086715"></trkpt>
    <trkpt lat="50.0654143" lon="19.9090311"></trkpt>
    </trkseg>
  </trk>
</gpx>