<?xml version="1.0" encoding="UTF-8"?>
<gpx version="1.1" creator="running-air"
     xmlns="http://www.topografix.com/GPX/1/1">
  <metadata><time>2026-10-10T11:20:37Z</time></metadata>
  <trk>
    <name>Najlepsza trasa biegowa Kraków</name>
    <trkseg>
    <trkpt lat="50.0654143" lon="19.9090311"></trkpt>
    <trkpt lat="50.0654864" lon="19.9086715"></trkpt>
    <trkpt lat="50.0655161" lon="19.9086607"></trkpt>
    <trkpt lat="50.0657567" lon="19.9087611"></trkpt>
    <trkpt lat="50.0661021" lon="19.9087437"></trkpt>
    <trkpt lat="50.0661717" lon="19.9087651"></trkpt>
    <trkpt lat="50.0661519" lon="19.9088797"></trkpt>
    <trkpt lat="50.0661051" lon="19.9095778"></trkpt>
    <trkpt lat="50.0655496" lon="19.9129204"></trkpt>
    <trkpt lat="50.0657025" lon="19.9135881"></trkpt>
    <trkpt lat="50.0656557" lon="19.9137935"></trkpt>
    <trkpt lat="50.0656019" lon="19.9140597"></trkpt>
    <trkpt lat="50.0650236" lon="19.9166316"></trkpt>
    <trkpt lat="50.0649888" lon="19.9167821"></trkpt>
    <trkpt lat="50.0645664" lon="19.9185905"></trkpt>
    <trkpt lat="50.0645103" lon="19.9188288"></trkpt>
    <trkpt lat="50.0643235" lon="19.9199681"></trkpt>
    <trkpt lat="50.0642607" lon="19.9203891"></trkpt>
    <trkpt lat="50.0641903" lon="19.9208519"></trkpt>
    <trkpt lat="50.0641435" lon="19.9211686"></trkpt>
    <trkpt lat="50.0641187" lon="19.921137"></trkpt>
    <trkpt lat="50.0640714" lon="19.9211317"></trkpt>
    <trkpt lat="50.0638174" lon="19.9218008"></trkpt>
    <trkpt lat="50.0636605" lon="19.9221291"></trkpt>
    <trkpt lat="50.0635607" lon="19.9223408"></trkpt>
    <trkpt lat="50.0634792" lon="19.9225123"></trkpt>
    <trkpt lat="50.0634501" lon="19.9225773"></trkpt>
    <trkpt lat="50.0630898" lon="19.9230357"></trkpt>
    <trkpt lat="50.0630621" lon="19.9230719"></trkpt>
    <trkpt lat="50.0630761" lon="19.9231862"></trkpt>
    <trkpt lat="50.0630778" lon="19.9232148"></trkpt>
    <trkpt lat="50.0626428" lon="19.9230891"></trkpt>
    <trkpt lat="50.0623006" lon="19.9231355"></trkpt>
    <trkpt lat="50.0622823" lon="19.9231418"></trkpt>
    <trkpt lat="50.0621801" lon="19.9231735"></trkpt>
    <trkpt lat="50.0621038" lon="19.9232031"></trkpt>
    <trkpt lat="50.0619024" lon="19.9233177"></trkpt>
    <trkpt lat="50.0618071" lon="19.923375"></trkpt>
    <trkpt lat="50.0613254" lon="19.92361"></trkpt>
    <trkpt lat="50.0612229" lon="19.9236594"></trkpt>
    <trkpt lat="50.0610324" lon="19.9237576"></trkpt>
    <trkpt lat="50.060935" lon="19.9238446"></trkpt>
    <trkpt lat="50.0600974" lon="19.9242769"></trkpt>
    <trkpt lat="50.0595263" lon="19.9245902"></trkpt>
    <trkpt lat="50.0594386" lon="19.9246426"></trkpt>
    <trkpt lat="50.059431" lon="19.9245911"></trkpt>
    <trkpt lat="50.0593349" lon="19.9246151"></trkpt>
    <trkpt lat="50.0592675" lon="19.9246446"></trkpt>
    <trkpt lat="50.0591902" lon="19.9246847"></trkpt>
    <trkpt lat="50.0591386" lon="19.9247671"></trkpt>
    <trkpt lat="50.0582206" lon="19.9253719"></trkpt>
    <trkpt lat="50.0581051" lon="19.9254706"></trkpt>
    <trkpt lat="50.0580389" lon="19.9255209"></trkpt>
    <trkpt lat="50.0561916" lon="19.9266412"></trkpt>
    <trkpt lat="50.056031" lon="19.9267205"></trkpt>
    <trkpt lat="50.056013" lon="19.9267336"></trkpt>
    <trkpt lat="50.0559906" lon="19.9267449"></trkpt>
    <trkpt lat="50.0553335" lon="19.9271205"></trkpt>
    <trkpt lat="50.0552382" lon="19.9271843"></trkpt>
    <trkpt lat="50.0551679" lon="19.9271848"></trkpt>
    <trkpt lat="50.0551426" lon="19.9271375"></trkpt>
    <trkpt lat="50.0551067" lon="19.9271771"></trkpt>
    <trkpt lat="50.0550399" lon="19.9272473"></trkpt>
    <trkpt lat="50.0550006" lon="19.9272885"></trkpt>
    <trkpt lat="50.0549652" lon="19.9273268"></trkpt>
    <trkpt lat="50.0549336" lon="19.9275694"></trkpt>
    <trkpt lat="50.0532944" lon="19.9288792"></trkpt>
    <trkpt lat="50.0531009" lon="19.9288586"></trkpt>
    <trkpt lat="50.0530615" lon="19.928754"></trkpt>
    <trkpt lat="50.0530235" lon="19.9287872"></trkpt>
    <trkpt lat="50.0529675" lon="19.92884"></trkpt>
    <trkpt lat="50.0530235" lon="19.9287872"></trkpt>
    <trkpt lat="50.0530615" lon="19.928754"></trkpt>
    <trkpt lat="50.0531009" lon="19.9288586"></trkpt>
    <trkpt lat="50.0532944" lon="19.9288792"></trkpt>
    <trkpt lat="50.0549336" lon="19.9275694"></trkpt>
    <trkpt lat="50.0549652" lon="19.9273268"></trkpt>
    <trkpt lat="50.0550006" lon="19.9272885"></trkpt>
    <trkpt lat="50.0550399" lon="19.9272473"></trkpt>
    <trkpt lat="50.0551067" lon="19.9271771"></trkpt>
    <trkpt lat="50.0551426" lon="19.9271375"></trkpt>
    <trkpt lat="50.0551679" lon="19.9271848"></trkpt>
    <trkpt lat="50.0552382" lon="19.9271843"></trkpt>
    <trkpt lat="50.0553335" lon="19.9271205"></trkpt>
    <trkpt lat="50.0559906" lon="19.9267449"></trkpt>
    <trkpt lat="50.056013" lon="19.9267336"></trkpt>
    <trkpt lat="50.056031" lon="19.9267205"></trkpt>
    <trkpt lat="50.0561916" lon="19.9266412"></trkpt>
    <trkpt lat="50.0580389" lon="19.9255209"></trkpt>
    <trkpt lat="50.0581051" lon="19.9254706"></trkpt>
    <trkpt lat="50.0582206" lon="19.9253719"></trkpt>
    <trkpt lat="50.0591386" lon="19.9247671"></trkpt>
    <trkpt lat="50.0591902" lon="19.9246847"></trkpt>
    <trkpt lat="50.0592675" lon="19.9246446"></trkpt>
    <trkpt lat="50.0593349" lon="19.9246151"></trkpt>
    <trkpt lat="50.059431" lon="19.9245911"></trkpt>
    <trkpt lat="50.0594386" lon="19.9246426"></trkpt>
    <trkpt lat="50.0595263" lon="19.9245902"></trkpt>
    <trkpt lat="50.0600974" lon="19.9242769"></trkpt>
    <trkpt lat="50.060935" lon="19.9238446"></trkpt>
    <trkpt lat="50.0610324" lon="19.9237576"></trkpt>
    <trkpt lat="50.0612229" lon="19.9236594"></trkpt>
    <trkpt lat="50.0613254" lon="19.92361"></trkpt>
    <trkpt lat="50.0618071" lon="19.923375"></trkpt>
    <trkpt lat="50.0619024" lon="19.9233177"></trkpt>
    <trkpt lat="50.0621038" lon="19.9232031"></trkpt>
    <trkpt lat="50.0621801" lon="19.9231735"></trkpt>
    <trkpt lat="50.0622823" lon="19.9231418"></trkpt>
    <trkpt lat="50.0623006" lon="19.9231355"></trkpt>
    <trkpt lat="50.0626428" lon="19.9230891"></trkpt>
    <trkpt lat="50.0630778" lon="19.9232148"></trkpt>
    <trkpt lat="50.0630761" lon="19.9231862"></trkpt>
    <trkpt lat="50.0630621" lon="19.9230719"></trkpt>
    <trkpt lat="50.0630898" lon="19.9230357"></trkpt>
    <trkpt lat="50.0634501" lon="19.9225773"></trkpt>
    <trkpt lat="50.0634792" lon="19.9225123"></trkpt>
    <trkpt lat="50.0635607" lon="19.9223408"></trkpt>
    <trkpt lat="50.0636605" lon="19.9221291"></trkpt>
    <trkpt lat="50.0638174" lon="19.9218008"></trkpt>
    <trkpt lat="50.0640714" lon="19.9211317"></trkpt>
    <trkpt lat="50.0641187" lon="19.921137"></trkpt>
    <trkpt lat="50.0641435" lon="19.9211686"></trkpt>
    <trkpt lat="50.0641903" lon="19.9208519"></trkpt>
    <trkpt lat="50.0642607" lon="19.9203891"></trkpt>
    <trkpt lat="50.0643235" lon="19.9199681"></trkpt>
    <trkpt lat="50.0645103" lon="19.9188288"></trkpt>
    <trkpt lat="50.0645664" lon="19.9185905"></trkpt>
    <trkpt lat="50.0649888" lon="19.9167821"></trkpt>
    <trkpt lat="50.0650236" lon="19.9166316"></trkpt>
    <trkpt lat="50.0656019" lon="19.9140597"></trkpt>
    <trkpt lat="50.0656557" lon="19.9137935"></trkpt>
    <trkpt lat="50.0657025" lon="19.9135881"></trkpt>
    <trkpt lat="50.0655496" lon="19.9129204"></trkpt>
    <trkpt lat="50.0661051" lon="19.9095778"></trkpt>
    <trkpt lat="50.0661519" lon="19.9088797"></trkpt>
    <trkpt lat="50.0661717" lon="19.9087651"></trkpt>
    <trkpt lat="50.0661021" lon="19.9087437"></trkpt>
    <trkpt lat="50.0657567" lon="19.9087611"></trkpt>
    <trkpt lat="50.0655161" lon="19.9086607"></trkpt>
    <trkpt lat="50.0654864" lon="19.9086715"></trkpt>
    <trkpt lat="50.0654143" lon="19.9090311"></trkpt>
    </trkseg>
  </trk>
</gpx>